OBJECT_NAME,OBJECT_ID,EPOCH,MEAN_MOTION,ECCENTRICITY,INCLINATION,RA_OF_ASC_NODE,ARG_OF_PERICENTER,MEAN_ANOMALY,EPHEMERIS_TYPE,CLASSIFICATION_TYPE,NORAD_CAT_ID,ELEMENT_SET_NO,REV_AT_EPOCH,BSTAR,MEAN_MOTION_DOT,MEAN_MOTION_DDOT
ASTRA 1M,2008-057A,2026-07-04T22:32:01.175136,1.00272422,.0004946,0.3392,82.7110,34.6124,163.0042,0,U,33436,999,4591,0,.133E-5,0
EUTELSAT HOTBIRD 13C,2008-065A,2026-07-04T20:29:34.660032,1.00269796,.00033141,2.9926,78.9898,26.5241,74.4235,0,U,33459,999,4752,0,-.271E-5,0
EXPRESS-AM44,2009-007A,2026-07-04T20:40:48.910944,1.00271938,.00042252,3.5064,78.1852,17.1977,126.6764,0,U,33595,999,5246,0,-.78E-6,0
NSS-9,2009-008A,2026-07-04T19:53:23.129952,1.00272801,.00022394,1.3044,82.4986,14.8931,306.8636,0,U,33749,999,6369,0,.84E-6,0
TELSTAR 11N,2009-009A,2026-07-04T22:15:49.131936,1.00271925,.00025547,0.0169,67.2304,35.4392,116.6682,0,U,34111,999,4642,0,-.238E-5,0
WGS F2 (USA 204),2009-017A,2026-07-02T17:40:37.432704,1.00270260,.00005037,0.0187,20.0082,139.1091,84.3284,0,U,34713,999,4577,0,.79E-6,0
SES-7 (PROTOSTAR 2),2009-027A,2026-07-02T16:28:11.861760,1.00270101,.00011412,0.0243,57.4916,120.3413,98.1720,0,U,34941,999,6278,0,-.334E-5,0
MEASAT-3A,2009-032A,2026-07-04T21:29:30.935616,1.00271384,.00030796,0.0215,356.4126,100.6008,308.2742,0,U,35362,999,820,0,-.98E-6,0
GOES 14,2009-033A,2026-07-04T23:03:58.506912,1.00104012,.00021427,1.7327,82.8376,30.2434,287.2365,0,U,35491,999,676,0,-.332E-5,0
FM-5,2009-034A,2026-07-02T18:42:12.903264,1.00271535,.00009637,0.0343,275.0250,71.7322,128.4433,0,U,35493,999,4680,0,-.189E-5,0
TERRESTAR-1,2009-035A,2026-07-04T15:04:19.869600,1.00272514,.0002634,5.1878,48.7862,47.2368,301.6827,0,U,35496,999,6230,0,-.46E-6,0
ASIASAT 5,2009-042A,2026-07-04T22:55:14.344032,1.00270880,.0001581,0.0352,75.6513,8.4587,283.1678,0,U,35696,999,6188,0,-.294E-5,0
JCSAT-12 (JCSAT-RA),2009-044A,2026-07-04T23:04:13.482624,1.00270639,.00008996,0.0241,299.7799,250.0972,211.1798,0,U,35755,999,6178,0,-.315E-5,0
OPTUS D3,2009-044B,2026-07-02T18:08:46.110336,1.00273454,.00035194,0.8834,268.4529,194.0205,246.6503,0,U,35756,999,6172,0,-.134E-5,0
NIMIQ 5,2009-050A,2026-07-02T14:48:10.247328,1.00270300,.000296,0.0248,285.3738,168.5925,336.0220,0,U,35873,999,6149,0,-.246E-5,0
AMAZONAS 2,2009-054A,2026-07-02T13:38:20.516064,1.00268849,.0003523,1.8530,82.8651,23.0075,307.2888,0,U,35942,999,6133,0,-.249E-5,0
COMSATBW-1,2009-054B,2026-07-04T21:33:25.205760,1.00272902,.00030209,0.0715,119.7412,348.3215,201.2183,0,U,35943,999,6148,0,.37E-6,0
NSS-12,2009-058A,2026-07-04T22:58:02.246016,1.00272689,.00046051,0.0585,277.5310,153.2141,253.7231,0,U,36032,999,6109,0,.84E-6,0
THOR 6,2009-058B,2026-07-04T20:43:41.136384,1.00271427,.00021356,0.0143,100.3687,25.9254,106.6462,0,U,36033,999,6118,0,.3E-7,0
INTELSAT 14 (IS-14),2009-064A,2026-07-04T22:13:41.836224,1.00272575,.00025183,0.0131,316.0468,147.6433,107.6742,0,U,36097,999,6078,0,-.261E-5,0
EUTELSAT 36B,2009-065A,2026-07-04T23:00:31.221216,1.00270338,.00060238,0.5328,81.2880,22.5290,214.7635,0,U,36101,999,6088,0,.125E-5,0
INTELSAT 15 (IS-15),2009-067A,2026-07-04T22:50:52.262592,1.00271884,.0002329,0.0072,349.2639,121.7460,239.8166,0,U,36106,999,4140,0,-.172E-5,0
WGS F3 (USA 211),2009-068A,2026-07-02T11:33:38.649312,1.00272327,.0000791,0.3096,85.7176,41.4348,196.7936,0,U,36108,999,4674,0,.74E-6,0
DIRECTV 12,2009-075A,2026-07-02T15:12:13.817664,1.00269592,.00002931,0.0418,186.0830,277.3252,302.5946,0,U,36131,999,4670,0,-.92E-6,0
BEIDOU-2 G1,2010-001A,2026-07-04T23:06:20.780064,1.00270372,.00019172,4.3326,60.3482,308.2924,41.3860,0,U,36287,999,6034,0,-.269E-5,0
SDO,2010-005A,2026-07-02T06:00:38.579328,1.00270409,.0001496,34.6806,86.1151,53.7669,128.3250,0,U,36395,999,6021,0,-.81E-6,0
INTELSAT 16 (IS-16),2010-006A,2026-07-04T22:04:51.385152,1.00271564,.00024087,0.0096,35.4490,87.2321,55.2623,0,U,36397,999,5983,0,-.232E-5,0
EWS-G2 (GOES 15),2010-008A,2026-07-04T22:21:25.413696,1.00268353,.00053518,1.3233,82.6058,47.9655,191.1647,0,U,36411,999,5981,0,.34E-6,0
ECHOSTAR 14,2010-010A,2026-07-02T15:07:36.761376,1.00269513,.00021806,0.0182,18.7431,78.3147,291.6160,0,U,36499,999,4670,0,0,0
SES-1,2010-016A,2026-07-04T21:57:44.567424,1.00271423,.00027563,0.0400,286.3994,173.5246,51.4329,0,U,36516,999,5921,0,-.102E-5,0
ASTRA 3B,2010-021A,2026-07-04T21:21:01.473696,1.00272266,.00042411,1.5145,83.3400,16.6856,166.6006,0,U,36581,999,5904,0,.149E-5,0
COMSATBW-2,2010-021B,2026-07-04T20:44:47.664384,1.00270973,.00025378,0.0425,158.0890,318.2179,130.9686,0,U,36582,999,5913,0,.101E-5,0
