ASTRA 1M                
1 33436U 08057A   26185.93890249  .00000133  00000+0  00000+0 0  9990
2 33436   0.3392  82.7110 0004946  34.6124 163.0042  1.00272422 45915
EUTELSAT HOTBIRD 13C    
1 33459U 08065A   26185.85387338 -.00000271  00000+0  00000+0 0  9999
2 33459   2.9926  78.9898 0003314  26.5241  74.4235  1.00269796 47527
EXPRESS-AM44            
1 33595U 09007A   26185.86167721 -.00000078  00000+0  00000+0 0  9995
2 33595   3.5064  78.1852 0004225  17.1977 126.6764  1.00271938 52461
NSS-9                   
1 33749U 09008A   26185.82873993  .00000084  00000+0  00000+0 0  9994
2 33749   1.3044  82.4986 0002239  14.8931 306.8636  1.00272801 63696
TELSTAR 11N             
1 34111U 09009A   26185.92765199 -.00000238  00000+0  00000+0 0  9990
2 34111   0.0169  67.2304 0002554  35.4392 116.6682  1.00271925 46425
WGS F2 (USA 204)        
1 34713U 09017A   26183.73654436  .00000079  00000+0  00000+0 0  9997
2 34713   0.0187  20.0082 0000503 139.1091  84.3284  1.00270260 45770
SES-7 (PROTOSTAR 2)     
1 34941U 09027A   26183.68624840 -.00000334  00000+0  00000+0 0  9996
2 34941   0.0243  57.4916 0001141 120.3413  98.1720  1.00270101 62787
MEASAT-3A               
1 35362U 09032A   26185.89549694 -.00000098  00000+0  00000+0 0  9995
2 35362   0.0215 356.4126 0003079 100.6008 308.2742  1.00271384  8202
GOES 14                 
1 35491U 09033A   26185.96109383 -.00000332  00000+0  00000+0 0  9995
2 35491   1.7327  82.8376 0002142  30.2434 287.2365  1.00104012  6764
FM-5                    
1 35493U 09034A   26183.77931601 -.00000189  00000+0  00000+0 0  9991
2 35493   0.0343 275.0250 0000963  71.7322 128.4433  1.00271535 46804
TERRESTAR-1             
1 35496U 09035A   26185.62800775 -.00000046  00000+0  00000+0 0  9990
2 35496   5.1878  48.7862 0002634  47.2368 301.6827  1.00272514 62308
ASIASAT 5               
1 35696U 09042A   26185.95502713 -.00000294  00000+0  00000+0 0  9992
2 35696   0.0352  75.6513 0001581   8.4587 283.1678  1.00270880 61889
JCSAT-12 (JCSAT-RA)     
1 35755U 09044A   26185.96126716 -.00000315  00000+0  00000+0 0  9990
2 35755   0.0241 299.7799 0000899 250.0972 211.1798  1.00270639 61786
OPTUS D3                
1 35756U 09044B   26183.75608924 -.00000134  00000+0  00000+0 0  9991
2 35756   0.8834 268.4529 0003519 194.0205 246.6503  1.00273454 61724
NIMIQ 5                 
1 35873U 09050A   26183.61678527 -.00000246  00000+0  00000+0 0  9993
2 35873   0.0248 285.3738 0002960 168.5925 336.0220  1.00270300 61490
AMAZONAS 2              
1 35942U 09054A   26183.56829301 -.00000249  00000+0  00000+0 0  9999
2 35942   1.8530  82.8651 0003523  23.0075 307.2888  1.00268849 61339
COMSATBW-1              
1 35943U 09054B   26185.89820840  .00000037  00000+0  00000+0 0  9991
2 35943   0.0715 119.7412 0003020 348.3215 201.2183  1.00272902 61484
NSS-12                  
1 36032U 09058A   26185.95697044  .00000084  00000+0  00000+0 0  9992
2 36032   0.0585 277.5310 0004605 153.2141 253.7231  1.00272689 61095
THOR 6                  
1 36033U 09058B   26185.86367056  .00000003  00000+0  00000+0 0  9991
2 36033   0.0143 100.3687 0002135  25.9254 106.6462  1.00271427 61183
INTELSAT 14 (IS-14)     
1 36097U 09064A   26185.92617866 -.00000261  00000+0  00000+0 0  9999
2 36097   0.0131 316.0468 0002518 147.6433 107.6742  1.00272575 60781
EUTELSAT 36B            
1 36101U 09065A   26185.95869469  .00000125  00000+0  00000+0 0  9995
2 36101   0.5328  81.2880 0006023  22.5290 214.7635  1.00270338 60883
INTELSAT 15 (IS-15)     
1 36106U 09067A   26185.95199378 -.00000172  00000+0  00000+0 0  9990
2 36106   0.0072 349.2639 0002329 121.7460 239.8166  1.00271884 41405
WGS F3 (USA 211)        
1 36108U 09068A   26183.48169733  .00000074  00000+0  00000+0 0  9991
2 36108   0.3096  85.7176 0000791  41.4348 196.7936  1.00272327 46749
DIRECTV 12              
1 36131U 09075A   26183.63349326 -.00000092  00000+0  00000+0 0  9991
2 36131   0.0418 186.0830 0000293 277.3252 302.5946  1.00269592 46707
BEIDOU-2 G1             
1 36287U 10001A   26185.96274051 -.00000269  00000+0  00000+0 0  9990
2 36287   4.3326  60.3482 0001917 308.2924  41.3860  1.00270372 60342
SDO                     
1 36395U 10005A   26183.25044652 -.00000081  00000+0  00000+0 0  9998
2 36395  34.6806  86.1151 0001496  53.7669 128.3250  1.00270409 60216
INTELSAT 16 (IS-16)     
1 36397U 10006A   26185.92003918 -.00000232  00000+0  00000+0 0  9995
2 36397   0.0096  35.4490 0002408  87.2321  55.2623  1.00271564 59831
EWS-G2 (GOES 15)        
1 36411U 10008A   26185.93154414  .00000034  00000+0  00000+0 0  9992
2 36411   1.3233  82.6058 0005351  47.9655 191.1647  1.00268353 59818
ECHOSTAR 14             
1 36499U 10010A   26183.63028659  .00000000  00000+0  00000+0 0  9990
2 36499   0.0182  18.7431 0002180  78.3147 291.6160  1.00269513 46708
SES-1                   
1 36516U 10016A   26185.91509916 -.00000102  00000+0  00000+0 0  9993
2 36516   0.0400 286.3994 0002756 173.5246  51.4329  1.00271423 59217
ASTRA 3B                
1 36581U 10021A   26185.88960039  .00000149  00000+0  00000+0 0  9994
2 36581   1.5145  83.3400 0004241  16.6856 166.6006  1.00272266 59041
COMSATBW-2              
1 36582U 10021B   26185.86444056  .00000101  00000+0  00000+0 0  9997
2 36582   0.0425 158.0890 0002537 318.2179 130.9686  1.00270973 59136
